0 COSMOS 1275 DEB
1 12742U 81053CK  13281.87246574  .00000119  00000-0  11219-3 0  9696
2 12742 082.9452 095.2237 0047011 227.2513 265.3754 13.73124984612925
0 COSMOS 1275 DEB
1 12742U 81053CK  13286.97178542  .00000078  00000-0  67784-4 0  9717
2 12742 082.9456 091.4592 0047341 212.9440 272.7218 13.73126434613624
0 COSMOS 1275 DEB
1 12742U 81053CK  13289.42972747  .00000073  00000-0  62210-4 0  9724
2 12742 082.9462 089.6448 0047481 206.0360 183.0289 13.73126864613966
0 COSMOS 1275 DEB
1 12742U 81053CK  13292.42481215  .00000114  00000-0  10645-3 0  9734
2 12742 082.9468 087.4344 0047670 197.6918 228.5177 13.73127119614378
0 COSMOS 1275 DEB
1 12742U 81053CK  13294.46256678  .00000136  00000-0  12931-3 0  9748
2 12742 082.9469 085.9306 0047818 192.0602 221.6293 13.73127471614658
